start=new Date('2022-10-14T00:00:00.000Z').valueOf();
sats=[{"APOAPSIS":"540.848","MEAN_MOTION_DOT":"0.00001581","NORAD_CAT_ID":"52111","TIME_SYSTEM":"UTC","MEAN_ELEMENT_THEORY":"SGP4","RA_OF_ASC_NODE":"259.4765","LAUNCH_DATE":"2022-03-19","CENTER_NAME":"EARTH","MEAN_MOTION_DDOT":"0.0000000000000","DECAY_DATE":null,"CLASSIFICATION_TYPE":"U","ARG_OF_PERICENTER":"54.5857","COUNTRY_CODE":"US","EPHEMERIS_TYPE":"0","OBJECT_ID":"2022-029Z","FILE":"3609636","REV_AT_EPOCH":"3312","PERIAPSIS":"538.682","SEMIMAJOR_AXIS":"6917.900","SITE":"AFETR","PERIOD":"95.438","MEAN_ANOMALY":"305.5281","TLE_LINE2":"2 52111  53.2190 259.4765 0001565  54.5857 305.5281 15.08833623 33123","INCLINATION":"53.2190","OBJECT_TYPE":"PAYLOAD","TLE_LINE1":"1 52111U 22029Z   22286.62037269  .00001581  00000-0  11740-3 0  9991","REF_FRAME":"TEME","GP_ID":"215028353","ECCENTRICITY":"0.00015650","ELEMENT_SET_NO":"999","EPOCH":"2022-10-13T14:53:20.200416","BSTAR":"0.00011740000000","OBJECT_NAME":"STARLINK-3708","MEAN_MOTION":"15.08833623","RCS_SIZE":"LARGE"},{"MEAN_MOTION_DDOT":"0.0000000000000","CLASSIFICATION_TYPE":"U","DECAY_DATE":null,"ARG_OF_PERICENTER":"53.9459","COUNTRY_CODE":"US","OBJECT_ID":"2022-029AA","EPHEMERIS_TYPE":"0","FILE":"3609636","REV_AT_EPOCH":"3312","SEMIMAJOR_AXIS":"6917.894","PERIAPSIS":"538.463","SITE":"AFETR","APOAPSIS":"541.055","MEAN_MOTION_DOT":"0.00002475","TIME_SYSTEM":"UTC","NORAD_CAT_ID":"52112","MEAN_ELEMENT_THEORY":"SGP4","RA_OF_ASC_NODE":"259.4335","LAUNCH_DATE":"2022-03-19","CENTER_NAME":"EARTH","REF_FRAME":"TEME","GP_ID":"215028589","ECCENTRICITY":"0.00018730","ELEMENT_SET_NO":"999","EPOCH":"2022-10-13T15:03:56.700576","BSTAR":"0.00017354000000","OBJECT_NAME":"STARLINK-3734","MEAN_MOTION":"15.08835519","RCS_SIZE":"LARGE","MEAN_ANOMALY":"306.1707","PERIOD":"95.438","TLE_LINE2":"2 52112  53.2162 259.4335 0001873  53.9459 306.1707 15.08835519 33125","INCLINATION":"53.2162","TLE_LINE1":"1 52112U 22029AA  22286.62773959  .00002475  00000-0  17354-3 0  9995","OBJECT_TYPE":"PAYLOAD"},{"INCLINATION":"53.2179","TLE_LINE2":"2 52113  53.2179 260.3903 0001792  53.1857 306.9300 15.08829731 33092","PERIOD":"95.438","MEAN_ANOMALY":"306.9300","TLE_LINE1":"1 52113U 22029AB  22286.41429561  .00000464  00000-0  47246-4 0  9990","OBJECT_TYPE":"PAYLOAD","ECCENTRICITY":"0.00017920","ELEMENT_SET_NO":"999","GP_ID":"214994286","REF_FRAME":"TEME","MEAN_MOTION":"15.08829731","RCS_SIZE":"LARGE","BSTAR":"0.00004724600000","OBJECT_NAME":"STARLINK-3736","EPOCH":"2022-10-13T09:56:35.140704","APOAPSIS":"541.016","CENTER_NAME":"EARTH","LAUNCH_DATE":"2022-03-19","RA_OF_ASC_NODE":"260.3903","MEAN_ELEMENT_THEORY":"SGP4","MEAN_MOTION_DOT":"0.00000464","TIME_SYSTEM":"UTC","NORAD_CAT_ID":"52113","COUNTRY_CODE":"US","ARG_OF_PERICENTER":"53.1857","CLASSIFICATION_TYPE":"U","DECAY_DATE":null,"MEAN_MOTION_DDOT":"0.0000000000000","SITE":"AFETR","SEMIMAJOR_AXIS":"6917.912","PERIAPSIS":"538.537","FILE":"3609209","REV_AT_EPOCH":"3309","EPHEMERIS_TYPE":"0","OBJECT_ID":"2022-029AB"},{"APOAPSIS":"541.133","RA_OF_ASC_NODE":"259.4554","CENTER_NAME":"EARTH","LAUNCH_DATE":"2022-03-19","TIME_SYSTEM":"UTC","NORAD_CAT_ID":"52114","MEAN_MOTION_DOT":"0.00001922","MEAN_ELEMENT_THEORY":"SGP4","ARG_OF_PERICENTER":"50.9019","COUNTRY_CODE":"US","MEAN_MOTION_DDOT":"0.0000000000000","DECAY_DATE":null,"CLASSIFICATION_TYPE":"U","PERIAPSIS":"538.390","SEMIMAJOR_AXIS":"6917.897","SITE":"AFETR","EPHEMERIS_TYPE":"0","OBJECT_ID":"2022-029AC","FILE":"3609636","REV_AT_EPOCH":"3312","MEAN_ANOMALY":"309.2149","PERIOD":"95.438","INCLINATION":"53.2181","TLE_LINE2":"2 52114  53.2181 259.4554 0001983  50.9019 309.2149 15.08834694 33129","OBJECT_TYPE":"PAYLOAD","TLE_LINE1":"1 52114U 22029AC  22286.62405533  .00001922  00000-0  13887-3 0  9990","ECCENTRICITY":"0.00019830","ELEMENT_SET_NO":"999","REF_FRAME":"TEME","GP_ID":"215027602","RCS_SIZE":"LARGE","MEAN_MOTION":"15.08834694","EPOCH":"2022-10-13T14:58:38.380512","OBJECT_NAME":"STARLINK-3737","BSTAR":"0.00013887000000"},{"APOAPSIS":"540.966","RA_OF_ASC_NODE":"261.3279","LAUNCH_DATE":"2022-03-19","CENTER_NAME":"EARTH","MEAN_MOTION_DOT":"0.00000806","TIME_SYSTEM":"UTC","NORAD_CAT_ID":"52115","MEAN_ELEMENT_THEORY":"SGP4","ARG_OF_PERICENTER":"55.0439","COUNTRY_CODE":"US","MEAN_MOTION_DDOT":"0.0000000000000","DECAY_DATE":null,"CLASSIFICATION_TYPE":"U","PERIAPSIS":"538.551","SEMIMAJOR_AXIS":"6917.893","SITE":"AFETR","EPHEMERIS_TYPE":"0","OBJECT_ID":"2022-029AD","FILE":"3609209","REV_AT_EPOCH":"3306","MEAN_ANOMALY":"305.0717","PERIOD":"95.438","TLE_LINE2":"2 52115  53.2205 261.3279 0001745  55.0439 305.0717 15.08835752 33065","INCLINATION":"53.2205","TLE_LINE1":"1 52115U 22029AD  22286.20821594  .00000806  00000-0  68766-4 0  9991","OBJECT_TYPE":"PAYLOAD","ECCENTRICITY":"0.00017450","ELEMENT_SET_NO":"999","REF_FRAME":"TEME","GP_ID":"214995288","MEAN_MOTION":"15.08835752","RCS_SIZE":"LARGE","EPOCH":"2022-10-13T04:59:49.857216","BSTAR":"0.00006876600000","OBJECT_NAME":"STARLINK-3685"},{"APOAPSIS":"540.829","CENTER_NAME":"EARTH","LAUNCH_DATE":"2022-03-19","RA_OF_ASC_NODE":"260.3797","MEAN_ELEMENT_THEORY":"SGP4","MEAN_MOTION_DOT":"0.00003829","NORAD_CAT_ID":"52116","TIME_SYSTEM":"UTC","COUNTRY_CODE":"US","ARG_OF_PERICENTER":"47.7024","DECAY_DATE":null,"CLASSIFICATION_TYPE":"U","MEAN_MOTION_DDOT":"0.0000000000000","SITE":"AFETR","SEMIMAJOR_AXIS":"6917.878","PERIAPSIS":"538.657","FILE":"3609209","REV_AT_EPOCH":"3309","EPHEMERIS_TYPE":"0","OBJECT_ID":"2022-029AE","INCLINATION":"53.2181","TLE_LINE2":"2 52116  53.2181 260.3797 0001570  47.7024 312.4101 15.08840761 33095","PERIOD":"95.438","MEAN_ANOMALY":"312.4101","TLE_LINE1":"1 52116U 22029AE  22286.41798118  .00003829  00000-0  25854-3 0  9998","OBJECT_TYPE":"PAYLOAD","ELEMENT_SET_NO":"999","ECCENTRICITY":"0.00015700","GP_ID":"214994536","REF_FRAME":"TEME","MEAN_MOTION":"15.08840761","RCS_SIZE":"LARGE","BSTAR":"0.00025854000000","OBJECT_NAME":"STARLINK-3735","EPOCH":"2022-10-13T10:01:53.573952"},{"DECAY_DATE":null,"CLASSIFICATION_TYPE":"U","MEAN_MOTION_DDOT":"0.0000000000000","COUNTRY_CODE":"US","ARG_OF_PERICENTER":"47.6716","REV_AT_EPOCH":"3314","FILE":"3608449","EPHEMERIS_TYPE":"0","OBJECT_ID":"2022-029AF","SITE":"AFETR","SEMIMAJOR_AXIS":"6917.909","PERIAPSIS":"538.338","APOAPSIS":"541.210","MEAN_ELEMENT_THEORY":"SGP4","MEAN_MOTION_DOT":"0.00000927","TIME_SYSTEM":"UTC","NORAD_CAT_ID":"52117","CENTER_NAME":"EARTH","LAUNCH_DATE":"2022-03-19","RA_OF_ASC_NODE":"259.2751","GP_ID":"214952796","REF_FRAME":"TEME","ECCENTRICITY":"0.00020760","ELEMENT_SET_NO":"999","BSTAR":"0.00007637800000","OBJECT_NAME":"STARLINK-3738","EPOCH":"2022-10-13T15:56:57.021504","MEAN_MOTION":"15.08830640","RCS_SIZE":"LARGE","INCLINATION":"53.2191","TLE_LINE2":"2 52117  53.2191 259.2751 0002076  47.6716 312.4452 15.08830640 33143","PERIOD":"95.438","MEAN_ANOMALY":"312.4452","OBJECT_TYPE":"PAYLOAD","TLE_LINE1":"1 52117U 22029AF  22286.66454886  .00000927  00000-0  76378-4 0  9991"},{"ELEMENT_SET_NO":"999","ECCENTRICITY":"0.00018480","GP_ID":"214995038","REF_FRAME":"TEME","MEAN_MOTION":"15.08834507","RCS_SIZE":"LARGE","BSTAR":"0.00002247100000","OBJECT_NAME":"STARLINK-3743","EPOCH":"2022-10-13T09:51:17.295840","INCLINATION":"53.2180","TLE_LINE2":"2 52118  53.2180 260.4075 0001848  44.5313 315.5827 15.08834507 33090","PERIOD":"95.438","MEAN_ANOMALY":"315.5827","OBJECT_TYPE":"PAYLOAD","TLE_LINE1":"1 52118U 22029AG  22286.41061685  .00000069  00000-0  22471-4 0  9998","COUNTRY_CODE":"US","ARG_OF_PERICENTER":"44.5313","CLASSIFICATION_TYPE":"U","DECAY_DATE":null,"MEAN_MOTION_DDOT":"0.0000000000000","SITE":"AFETR","PERIAPSIS":"538.484","SEMIMAJOR_AXIS":"6917.897","FILE":"3609209","REV_AT_EPOCH":"3309","EPHEMERIS_TYPE":"0","OBJECT_ID":"2022-029AG","APOAPSIS":"541.041","LAUNCH_DATE":"2022-03-19","CENTER_NAME":"EARTH","RA_OF_ASC_NODE":"260.4075","MEAN_ELEMENT_THEORY":"SGP4","MEAN_MOTION_DOT":"0.00000069","TIME_SYSTEM":"UTC","NORAD_CAT_ID":"52118"},{"DECAY_DATE":null,"CLASSIFICATION_TYPE":"U","MEAN_MOTION_DDOT":"0.0000000000000","COUNTRY_CODE":"US","ARG_OF_PERICENTER":"54.2412","FILE":"3609636","REV_AT_EPOCH":"3313","OBJECT_ID":"2022-029AH","EPHEMERIS_TYPE":"0","SITE":"AFETR","PERIAPSIS":"538.579","SEMIMAJOR_AXIS":"6917.859","APOAPSIS":"540.868","MEAN_ELEMENT_THEORY":"SGP4","NORAD_CAT_ID":"52119","TIME_SYSTEM":"UTC","MEAN_MOTION_DOT":"0.00004053","LAUNCH_DATE":"2022-03-19","CENTER_NAME":"EARTH","RA_OF_ASC_NODE":"259.3063","GP_ID":"215028354","REF_FRAME":"TEME","ELEMENT_SET_NO":"999","ECCENTRICITY":"0.00016550","OBJECT_NAME":"STARLINK-3558","BSTAR":"0.00027256000000","EPOCH":"2022-10-13T15:46:20.092800","RCS_SIZE":"LARGE","MEAN_MOTION":"15.08847156","INCLINATION":"53.2189","TLE_LINE2":"2 52119  53.2189 259.3063 0001655  54.2412 305.8734 15.08847156 33136","PERIOD":"95.437","MEAN_ANOMALY":"305.8734","TLE_LINE1":"1 52119U 22029AH  22286.65717700  .00004053  00000-0  27256-3 0  9993","OBJECT_TYPE":"PAYLOAD"},{"OBJECT_TYPE":"PAYLOAD","TLE_LINE1":"1 52120U 22029AJ  22286.80069877  .00005510  00000-0  36398-3 0  9993","TLE_LINE2":"2 52120  53.2177 258.6595 0001842  49.2183 310.8969 15.08841743 33169","INCLINATION":"53.2177","MEAN_ANOMALY":"310.8969","PERIOD":"95.437","RCS_SIZE":"LARGE","MEAN_MOTION":"15.08841743","OBJECT_NAME":"STARLINK-3534","BSTAR":"0.00036398000000","EPOCH":"2022-10-13T19:13:00.373728","ECCENTRICITY":"0.00018420","ELEMENT_SET_NO":"999","GP_ID":"215028590","REF_FRAME":"TEME","CENTER_NAME":"EARTH","LAUNCH_DATE":"2022-03-19","RA_OF_ASC_NODE":"258.6595","MEAN_ELEMENT_THEORY":"SGP4","TIME_SYSTEM":"UTC","NORAD_CAT_ID":"52120","MEAN_MOTION_DOT":"0.00005510","APOAPSIS":"541.014","SITE":"AFETR","PERIAPSIS":"538.466","SEMIMAJOR_AXIS":"6917.875","FILE":"3609636","REV_AT_EPOCH":"3316","OBJECT_ID":"2022-029AJ","EPHEMERIS_TYPE":"0","COUNTRY_CODE":"US","ARG_OF_PERICENTER":"49.2183","CLASSIFICATION_TYPE":"U","DECAY_DATE":null,"MEAN_MOTION_DDOT":"0.0000000000000"}];
